ONEWEB-0346             
1 49212U 21083AC  24016.39962803  .00000128  00000+0  29081-3 0  9998
2 49212  87.9236 151.1301 0001014  98.9124 261.2123 13.18685502113636
ONEWEB-0348             
1 49213U 21083AD  24016.16873187  .00000077  00000+0  15750-3 0  9991
2 49213  87.9173  90.2155 0001316  80.7186 279.4096 13.20771244120257
ONEWEB-0350             
1 49214U 21083AE  24016.37388407  .00000116  00000+0  28303-3 0  9993
2 49214  87.9013 135.9325 0001405  90.3446 269.7844 13.13471497115045
ONEWEB-0351             
1 49215U 21083AF  24016.16241387  .00000110  00000+0  23949-3 0  9991
2 49215  87.9179  90.2217 0002266 101.5140 258.6248 13.20771972120213
ONEWEB-0352             
1 49216U 21083AG  24016.73573750 -.00000206  00000+0 -59805-3 0  9995
2 49216  87.9018 135.8876 0001859 107.1715 252.9618 13.13465919116485
ONEWEB-0354             
1 49217U 21083AH  24016.71796129 -.00000097  00000+0 -26947-3 0  9990
2 49217  87.9183  90.0907 0002196  84.2799 275.8584 13.20771575121633
ONEWEB-0355             
1 49218U 21083AJ  24016.38500454  .00000194  00000+0  49496-3 0  9998
2 49218  87.9017 135.9564 0001643  98.5591 261.5724 13.13475583115017
ONEWEB-0357             
1 49219U 21083AK  24016.71479971  .00000048  00000+0  87128-4 0  9998
2 49219  87.9179  90.1146 0001759  98.7208 261.4125 13.20772576121628
